[{"OBJECT_NAME":"STARLINK-6275","OBJECT_ID":"2023-078F","EPOCH":"2026-03-09T22:18:42.353568","MEAN_MOTION":14.98336233,"ECCENTRICITY":0.00028002,"INCLINATION":70.0016,"RA_OF_ASC_NODE":3.8295,"ARG_OF_PERICENTER":261.6536,"MEAN_ANOMALY":98.4306,"EPHEMERIS_TYPE":0,"CLASSIFICATION_TYPE":"U","NORAD_CAT_ID":56772,"ELEMENT_SET_NO":999,"REV_AT_EPOCH":15222,"BSTAR":-0.00017523289,"MEAN_MOTION_DOT":-2.183e-5,"MEAN_MOTION_DDOT":0},{"OBJECT_NAME":"COSMOS 2581","OBJECT_ID":"2025-026A","EPOCH":"2026-03-09T19:42:28.866816","MEAN_MOTION":14.94736104,"ECCENTRICITY":0.0010574,"INCLINATION":81.9986,"RA_OF_ASC_NODE":175.8565,"ARG_OF_PERICENTER":32.7244,"MEAN_ANOMALY":327.4629,"EPHEMERIS_TYPE":0,"CLASSIFICATION_TYPE":"U","NORAD_CAT_ID":62902,"ELEMENT_SET_NO":999,"REV_AT_EPOCH":5937,"BSTAR":0.00021137,"MEAN_MOTION_DOT":2.32e-5,"MEAN_MOTION_DDOT":0}]
